{
  "type": "FeatureCollection",
  "features": [
    {
      "type": "Feature",
      "properties": {
        "norad_id": 66458,
        "name": "STARLINK-35684",
        "group": "last-30-days",
        "lat": -41.791323676041436,
        "lon": 19.092496650411945,
        "alt_km": 390.0068896433886,
        "timestamp": "2025-12-03T10:52:56.221679+00:00",
        "meta_object_name": "STARLINK-35684",
        "meta_object_id": "2025-262C",
        "meta_epoch": "2025-12-03T04:00:01.998720",
        "meta_mean_motion": 15.6126075,
        "meta_eccentricity": 0.0001715,
        "meta_inclination": 43,
        "meta_ra_of_asc_node": 127.217,
        "meta_arg_of_pericenter": 276.5397,
        "meta_mean_anomaly": 168.413,
        "meta_ephemeris_type": 0,
        "meta_classification_type": "U",
        "meta_norad_cat_id": 66458,
        "meta_element_set_no": 999,
        "meta_rev_at_epoch": 410,
        "meta_bstar": -0.028004,
        "meta_mean_motion_dot": -0.02168529,
        "meta_mean_motion_ddot": 0,
        "tle_line1": "1 66458U 25262C   25337.16668980 -.02168529  00000+0 -28004-1 0  9999",
        "tle_line2": "2 66458  43.0000 127.2170 0001715 276.5397 168.4130 15.61260750  4102"
      },
      "geometry": {
        "type": "Point",
        "coordinates": [
          19.092496650411945,
          -41.791323676041436
        ]
      }
    },
    {
      "type": "Feature",
      "properties": {
        "norad_id": 66459,
        "name": "STARLINK-35449",
        "group": "last-30-days",
        "lat": -42.417183081422,
        "lon": 24.17572775846874,
        "alt_km": 390.11670386023434,
        "timestamp": "2025-12-03T10:52:56.221689+00:00",
        "meta_object_name": "STARLINK-35449",
        "meta_object_id": "2025-262D",
        "meta_epoch": "2025-12-03T04:00:01.998720",
        "meta_mean_motion": 15.61263489,
        "meta_eccentricity": 0.0001596,
        "meta_inclination": 42.9996,
        "meta_ra_of_asc_node": 127.207,
        "meta_arg_of_pericenter": 280.9556,
        "meta_mean_anomaly": 167.8314,
        "meta_ephemeris_type": 0,
        "meta_classification_type": "U",
        "meta_norad_cat_id": 66459,
        "meta_element_set_no": 999,
        "meta_rev_at_epoch": 410,
        "meta_bstar": -0.028064,
        "meta_mean_motion_dot": -0.02172727,
        "meta_mean_motion_ddot": 0,
        "tle_line1": "1 66459U 25262D   25337.16668980 -.02172727  00000+0 -28064-1 0  9991",
        "tle_line2": "2 66459  42.9996 127.2070 0001596 280.9556 167.8314 15.61263489  4106"
      },
      "geometry": {
        "type": "Point",
        "coordinates": [
          24.17572775846874,
          -42.417183081422
        ]
      }
    },
    {
      "type": "Feature",
      "properties": {
        "norad_id": 66460,
        "name": "STARLINK-35424",
        "group": "last-30-days",
        "lat": -42.64512628014441,
        "lon": 26.75735406115313,
        "alt_km": 390.20090503390657,
        "timestamp": "2025-12-03T10:52:56.221699+00:00",
        "meta_object_name": "STARLINK-35424",
        "meta_object_id": "2025-262E",
        "meta_epoch": "2025-12-03T04:00:01.998720",
        "meta_mean_motion": 15.61258339,
        "meta_eccentricity": 0.000144,
        "meta_inclination": 42.9995,
        "meta_ra_of_asc_node": 127.2021,
        "meta_arg_of_pericenter": 278.4379,
        "meta_mean_anomaly": 172.2732,
        "meta_ephemeris_type": 0,
        "meta_classification_type": "U",
        "meta_norad_cat_id": 66460,
        "meta_element_set_no": 999,
        "meta_rev_at_epoch": 410,
        "meta_bstar": -0.028009,
        "meta_mean_motion_dot": -0.0216845,
        "meta_mean_motion_ddot": 0,
        "tle_line1": "1 66460U 25262E   25337.16668980 -.02168450  00000+0 -28009-1 0  9990",
        "tle_line2": "2 66460  42.9995 127.2021 0001440 278.4379 172.2732 15.61258339  4108"
      },
      "geometry": {
        "type": "Point",
        "coordinates": [
          26.75735406115313,
          -42.64512628014441
        ]
      }
    },
    {
      "type": "Feature",
      "properties": {
        "norad_id": 66461,
        "name": "STARLINK-35132",
        "group": "last-30-days",
        "lat": -42.81386863276203,
        "lon": 29.34007870812753,
        "alt_km": 390.1628818725676,
        "timestamp": "2025-12-03T10:52:56.221714+00:00",
        "meta_object_name": "STARLINK-35132",
        "meta_object_id": "2025-262F",
        "meta_epoch": "2025-12-03T04:00:01.998720",
        "meta_mean_motion": 15.61254809,
        "meta_eccentricity": 0.0001498,
        "meta_inclination": 42.9996,
        "meta_ra_of_asc_node": 127.1971,
        "meta_arg_of_pericenter": 280.8679,
        "meta_mean_anomaly": 171.7547,
        "meta_ephemeris_type": 0,
        "meta_classification_type": "U",
        "meta_norad_cat_id": 66461,
        "meta_element_set_no": 999,
        "meta_rev_at_epoch": 410,
        "meta_bstar": -0.027852,
        "meta_mean_motion_dot": -0.02157442,
        "meta_mean_motion_ddot": 0,
        "tle_line1": "1 66461U 25262F   25337.16668980 -.02157442  00000+0 -27852-1 0  9995",
        "tle_line2": "2 66461  42.9996 127.1971 0001498 280.8679 171.7547 15.61254809  4102"
      },
      "geometry": {
        "type": "Point",
        "coordinates": [
          29.34007870812753,
          -42.81386863276203
        ]
      }
    },
    {
      "type": "Feature",
      "properties": {
        "norad_id": 66462,
        "name": "STARLINK-35499",
        "group": "last-30-days",
        "lat": -42.92458188988822,
        "lon": 31.95103835812736,
        "alt_km": 390.1790767702896,
        "timestamp": "2025-12-03T10:52:56.221724+00:00",
        "meta_object_name": "STARLINK-35499",
        "meta_object_id": "2025-262G",
        "meta_epoch": "2025-12-03T04:00:01.998720",
        "meta_mean_motion": 15.61262885,
        "meta_eccentricity": 0.0001452,
        "meta_inclination": 42.9997,
        "meta_ra_of_asc_node": 127.1919,
        "meta_arg_of_pericenter": 278.1966,
        "meta_mean_anomaly": 176.3452,
        "meta_ephemeris_type": 0,
        "meta_classification_type": "U",
        "meta_norad_cat_id": 66462,
        "meta_element_set_no": 999,
        "meta_rev_at_epoch": 410,
        "meta_bstar": -0.028078,
        "meta_mean_motion_dot": -0.02173524,
        "meta_mean_motion_ddot": 0,
        "tle_line1": "1 66462U 25262G   25337.16668980 -.02173524  00000+0 -28078-1 0  9996",
        "tle_line2": "2 66462  42.9997 127.1919 0001452 278.1966 176.3452 15.61262885  4104"
      },
      "geometry": {
        "type": "Point",
        "coordinates": [
          31.95103835812736,
          -42.92458188988822
        ]
      }
    },
    {
      "type": "Feature",
      "properties": {
        "norad_id": 66463,
        "name": "STARLINK-35463",
        "group": "last-30-days",
        "lat": -42.966831035242,
        "lon": 37.16492596439023,
        "alt_km": 390.00966691919257,
        "timestamp": "2025-12-03T10:52:56.221737+00:00",
        "meta_object_name": "STARLINK-35463",
        "meta_object_id": "2025-262H",
        "meta_epoch": "2025-12-03T04:00:01.998720",
        "meta_mean_motion": 15.61255939,
        "meta_eccentricity": 0.0001677,
        "meta_inclination": 42.9998,
        "meta_ra_of_asc_node": 127.1827,
        "meta_arg_of_pericenter": 278.5871,
        "meta_mean_anomaly": 179.7857,
        "meta_ephemeris_type": 0,
        "meta_classification_type": "U",
        "meta_norad_cat_id": 66463,
        "meta_element_set_no": 999,
        "meta_rev_at_epoch": 410,
        "meta_bstar": -0.027899,
        "meta_mean_motion_dot": -0.021609,
        "meta_mean_motion_ddot": 0,
        "tle_line1": "1 66463U 25262H   25337.16668980 -.02160900  00000+0 -27899-1 0  9991",
        "tle_line2": "2 66463  42.9998 127.1827 0001677 278.5871 179.7857 15.61255939  4100"
      },
      "geometry": {
        "type": "Point",
        "coordinates": [
          37.16492596439023,
          -42.966831035242
        ]
      }
    },
    {
      "type": "Feature",
      "properties": {
        "norad_id": 66464,
        "name": "STARLINK-35435",
        "group": "last-30-days",
        "lat": -42.975315619798174,
        "lon": 34.55256440742086,
        "alt_km": 390.1435951460144,
        "timestamp": "2025-12-03T10:52:56.221748+00:00",
        "meta_object_name": "STARLINK-35435",
        "meta_object_id": "2025-262J",
        "meta_epoch": "2025-12-03T04:00:01.998720",
        "meta_mean_motion": 15.61253313,
        "meta_eccentricity": 0.0001564,
        "meta_inclination": 42.9997,
        "meta_ra_of_asc_node": 127.187,
        "meta_arg_of_pericenter": 285.5245,
        "meta_mean_anomaly": 170.9365,
        "meta_ephemeris_type": 0,
        "meta_classification_type": "U",
        "meta_norad_cat_id": 66464,
        "meta_element_set_no": 999,
        "meta_rev_at_epoch": 410,
        "meta_bstar": -0.027895,
        "meta_mean_motion_dot": -0.02160309,
        "meta_mean_motion_ddot": 0,
        "tle_line1": "1 66464U 25262J   25337.16668980 -.02160309  00000+0 -27895-1 0  9991",
        "tle_line2": "2 66464  42.9997 127.1870 0001564 285.5245 170.9365 15.61253313  4107"
      },
      "geometry": {
        "type": "Point",
        "coordinates": [
          34.55256440742086,
          -42.975315619798174
        ]
      }
    }
  ]
}